{
  "type": "FeatureCollection",
  "name": "fair_bm_aois",
  "crs": {
    "type": "name",
    "properties": {
      "name": "urn:ogc:def:crs:OGC:1.3:CRS84"
    }
  },
  "features": [
    {
      "type": "Feature",
      "properties": {
        "role": "test",
        "name": "test",
        "zoom": 18,
        "tile_x": [
          193343,
          193348
        ],
        "tile_y": [
          110117,
          110122
        ],
        "tile_count": 36,
        "bbox": [
          85.51620483398438,
          27.631223846681284,
          85.52444458007812,
          27.638523614271943
        ],
        "size_m": [
          813,
          807
        ],
        "imagery_verified": true,
        "imagery_source": "openaerialmap.org 62d85d11d8499800053796c1"
      },
      "geometry": {
        "type": "Polygon",
        "coordinates": [
          [
            [
              85.51620483398438,
              27.631223846681284
            ],
            [
              85.52444458007812,
              27.631223846681284
            ],
            [
              85.52444458007812,
              27.638523614271943
            ],
            [
              85.51620483398438,
              27.638523614271943
            ],
            [
              85.51620483398438,
              27.631223846681284
            ]
          ]
        ]
      }
    },
    {
      "type": "Feature",
      "properties": {
        "role": "train",
        "name": "train_west",
        "zoom": 18,
        "tile_x": [
          193337,
          193341
        ],
        "tile_y": [
          110117,
          110122
        ],
        "tile_count": 30,
        "bbox": [
          85.50796508789062,
          27.631223846681284,
          85.51483154296875,
          27.638523614271943
        ],
        "size_m": [
          677,
          807
        ],
        "imagery_verified": true,
        "imagery_source": "openaerialmap.org 62d85d11d8499800053796c1"
      },
      "geometry": {
        "type": "Polygon",
        "coordinates": [
          [
            [
              85.50796508789062,
              27.631223846681284
            ],
            [
              85.51483154296875,
              27.631223846681284
            ],
            [
              85.51483154296875,
              27.638523614271943
            ],
            [
              85.50796508789062,
              27.638523614271943
            ],
            [
              85.50796508789062,
              27.631223846681284
            ]
          ]
        ]
      }
    },
    {
      "type": "Feature",
      "properties": {
        "role": "train",
        "name": "train_south",
        "zoom": 18,
        "tile_x": [
          193342,
          193356
        ],
        "tile_y": [
          110124,
          110129
        ],
        "tile_count": 90,
        "bbox": [
          85.51483154296875,
          27.62392379022122,
          85.53543090820312,
          27.63087772078043
        ],
        "size_m": [
          2034,
          769
        ],
        "imagery_verified": true,
        "imagery_source": "openaerialmap.org 62d85d11d8499800053796c1"
      },
      "geometry": {
        "type": "Polygon",
        "coordinates": [
          [
            [
              85.51483154296875,
              27.62392379022122
            ],
            [
              85.53543090820312,
              27.62392379022122
            ],
            [
              85.53543090820312,
              27.63087772078043
            ],
            [
              85.51483154296875,
              27.63087772078043
            ],
            [
              85.51483154296875,
              27.62392379022122
            ]
          ]
        ]
      }
    }
  ]
}